STARLINK-36734          
1 67988U 26039C   26074.25001157 -.01900574  00000+0 -23480-1 0  9993
2 67988  42.9995  21.2502 0001275 259.5550  16.4956 15.62493169  3770
STARLINK-36957          
1 67989U 26039D   26073.73020491  .00463680  00000+0  20819-2 0  9991
2 67989  42.9989  24.0143 0005335 227.1708 132.8716 15.82079172  2438
STARLINK-36951          
1 67990U 26039E   26074.25001157 -.01874721  00000+0 -13934-1 0  9993
2 67990  42.9996  20.8704 0001510 276.4303 151.8770 15.75151802  3776
STARLINK-36941          
1 67991U 26039F   26074.25001157 -.01898748  00000+0 -23780-1 0  9999
2 67991  42.9995  21.2313 0001367 257.9514  25.0393 15.62143200  3777
STARLINK-36950          
1 67992U 26039G   26074.25001157 -.01897896  00000+0 -19053-1 0  9991
2 67992  42.9998  21.0190 0001542 272.4749  95.6545 15.67626156  3772
STARLINK-36975          
1 67993U 26039H   26074.25001157 -.01897882  00000+0 -18058-1 0  9991
2 67993  42.9998  20.9704 0001441 271.1505 116.5225 15.68919818  3775
STARLINK-36993          
1 67994U 26039J   26074.25001157 -.01844491  00000+0 -11325-1 0  9990
2 67994  42.9999  20.7841 0001758 275.4546 187.1692 15.79322951  3770
STARLINK-36968          
1 67995U 26039K   26074.25001157 -.01896083  00000+0 -20803-1 0  9996
2 67995  42.9997  21.0486 0001482 268.4709  87.7352 15.65450705  3777
STARLINK-36979          
1 67996U 26039L   26073.97821315  .00202745  00000+0  94175-3 0  9999
2 67996  42.9991  22.4301 0002165 291.0763  68.9877 15.82043667  2477
STARLINK-36994          
1 67997U 26039M   26074.25001157 -.01878420  00000+0 -14043-1 0  9992
2 67997  42.9997  20.7850 0001257 272.2816 189.4560 15.75029971  3771
STARLINK-36988          
1 67998U 26039N   26074.25001157 -.01876635  00000+0 -13397-1 0  9990
2 67998  42.9998  20.7815 0001487 278.7442 184.4807 15.76062285  3770
STARLINK-36926          
1 67999U 26039P   26074.25001157 -.01881277  00000+0 -13949-1 0  9992
2 67999  42.9998  20.7715 0001453 280.1867 186.9296 15.75219117  3777
