CCSDS_OMM_VERS = 2.0
CREATION_DATE  = 
ORIGINATOR     = 

OBJECT_NAME    = STARLINK-36734
OBJECT_ID      = 2026-039C
CENTER_NAME    = EARTH
REF_FRAME      = TEME
TIME_SYSTEM    = UTC
MEAN_ELEMENT_THEORY = SGP/SGP4

EPOCH          = 2026-03-15T06:00:00.999648
MEAN_MOTION    = 15.62493169
ECCENTRICITY   = .00012752
INCLINATION    = 42.9995
RA_OF_ASC_NODE = 21.2502
ARG_OF_PERICENTER = 259.5550
MEAN_ANOMALY   = 16.4956

EPHEMERIS_TYPE = 0
CLASSIFICATION_TYPE = U
NORAD_CAT_ID   = 67988
ELEMENT_SET_NO = 999
REV_AT_EPOCH   = 377
BSTAR          = -.23480184E-1
MEAN_MOTION_DOT = -.1900574E-1
MEAN_MOTION_DDOT = 0

CCSDS_OMM_VERS = 2.0
CREATION_DATE  = 
ORIGINATOR     = 

OBJECT_NAME    = STARLINK-36957
OBJECT_ID      = 2026-039D
CENTER_NAME    = EARTH
REF_FRAME      = TEME
TIME_SYSTEM    = UTC
MEAN_ELEMENT_THEORY = SGP/SGP4

EPOCH          = 2026-03-14T17:31:29.704224
MEAN_MOTION    = 15.82079172
ECCENTRICITY   = .00053353
INCLINATION    = 42.9989
RA_OF_ASC_NODE = 24.0143
ARG_OF_PERICENTER = 227.1708
MEAN_ANOMALY   = 132.8716

EPHEMERIS_TYPE = 0
CLASSIFICATION_TYPE = U
NORAD_CAT_ID   = 67989
ELEMENT_SET_NO = 999
REV_AT_EPOCH   = 243
BSTAR          = .2081936E-2
MEAN_MOTION_DOT = .46368E-2
MEAN_MOTION_DDOT = 0

CCSDS_OMM_VERS = 2.0
CREATION_DATE  = 
ORIGINATOR     = 

OBJECT_NAME    = STARLINK-36951
OBJECT_ID      = 2026-039E
CENTER_NAME    = EARTH
REF_FRAME      = TEME
TIME_SYSTEM    = UTC
MEAN_ELEMENT_THEORY = SGP/SGP4

EPOCH          = 2026-03-15T06:00:00.999648
MEAN_MOTION    = 15.75151802
ECCENTRICITY   = .00015104
INCLINATION    = 42.9996
RA_OF_ASC_NODE = 20.8704
ARG_OF_PERICENTER = 276.4303
MEAN_ANOMALY   = 151.8770

EPHEMERIS_TYPE = 0
CLASSIFICATION_TYPE = U
NORAD_CAT_ID   = 67990
ELEMENT_SET_NO = 999
REV_AT_EPOCH   = 377
BSTAR          = -.13933951E-1
MEAN_MOTION_DOT = -.1874721E-1
MEAN_MOTION_DDOT = 0

CCSDS_OMM_VERS = 2.0
CREATION_DATE  = 
ORIGINATOR     = 

OBJECT_NAME    = STARLINK-36941
OBJECT_ID      = 2026-039F
CENTER_NAME    = EARTH
REF_FRAME      = TEME
TIME_SYSTEM    = UTC
MEAN_ELEMENT_THEORY = SGP/SGP4

EPOCH          = 2026-03-15T06:00:00.999648
MEAN_MOTION    = 15.62143200
ECCENTRICITY   = .00013674
INCLINATION    = 42.9995
RA_OF_ASC_NODE = 21.2313
ARG_OF_PERICENTER = 257.9514
MEAN_ANOMALY   = 25.0393

EPHEMERIS_TYPE = 0
CLASSIFICATION_TYPE = U
NORAD_CAT_ID   = 67991
ELEMENT_SET_NO = 999
REV_AT_EPOCH   = 377
BSTAR          = -.23779822E-1
MEAN_MOTION_DOT = -.1898748E-1
MEAN_MOTION_DDOT = 0

CCSDS_OMM_VERS = 2.0
CREATION_DATE  = 
ORIGINATOR     = 

OBJECT_NAME    = STARLINK-36950
OBJECT_ID      = 2026-039G
CENTER_NAME    = EARTH
REF_FRAME      = TEME
TIME_SYSTEM    = UTC
MEAN_ELEMENT_THEORY = SGP/SGP4

EPOCH          = 2026-03-15T06:00:00.999648
MEAN_MOTION    = 15.67626156
ECCENTRICITY   = .00015425
INCLINATION    = 42.9998
RA_OF_ASC_NODE = 21.0190
ARG_OF_PERICENTER = 272.4749
MEAN_ANOMALY   = 95.6545

EPHEMERIS_TYPE = 0
CLASSIFICATION_TYPE = U
NORAD_CAT_ID   = 67992
ELEMENT_SET_NO = 999
REV_AT_EPOCH   = 377
BSTAR          = -.19053145E-1
MEAN_MOTION_DOT = -.1897896E-1
MEAN_MOTION_DDOT = 0

CCSDS_OMM_VERS = 2.0
CREATION_DATE  = 
ORIGINATOR     = 

OBJECT_NAME    = STARLINK-36975
OBJECT_ID      = 2026-039H
CENTER_NAME    = EARTH
REF_FRAME      = TEME
TIME_SYSTEM    = UTC
MEAN_ELEMENT_THEORY = SGP/SGP4

EPOCH          = 2026-03-15T06:00:00.999648
MEAN_MOTION    = 15.68919818
ECCENTRICITY   = .00014415
INCLINATION    = 42.9998
RA_OF_ASC_NODE = 20.9704
ARG_OF_PERICENTER = 271.1505
MEAN_ANOMALY   = 116.5225

EPHEMERIS_TYPE = 0
CLASSIFICATION_TYPE = U
NORAD_CAT_ID   = 67993
ELEMENT_SET_NO = 999
REV_AT_EPOCH   = 377
BSTAR          = -.18057834E-1
MEAN_MOTION_DOT = -.1897882E-1
MEAN_MOTION_DDOT = 0

CCSDS_OMM_VERS = 2.0
CREATION_DATE  = 
ORIGINATOR     = 

OBJECT_NAME    = STARLINK-36993
OBJECT_ID      = 2026-039J
CENTER_NAME    = EARTH
REF_FRAME      = TEME
TIME_SYSTEM    = UTC
MEAN_ELEMENT_THEORY = SGP/SGP4

EPOCH          = 2026-03-15T06:00:00.999648
MEAN_MOTION    = 15.79322951
ECCENTRICITY   = .00017581
INCLINATION    = 42.9999
RA_OF_ASC_NODE = 20.7841
ARG_OF_PERICENTER = 275.4546
MEAN_ANOMALY   = 187.1692

EPHEMERIS_TYPE = 0
CLASSIFICATION_TYPE = U
NORAD_CAT_ID   = 67994
ELEMENT_SET_NO = 999
REV_AT_EPOCH   = 377
BSTAR          = -.11325467E-1
MEAN_MOTION_DOT = -.1844491E-1
MEAN_MOTION_DDOT = 0

CCSDS_OMM_VERS = 2.0
CREATION_DATE  = 
ORIGINATOR     = 

OBJECT_NAME    = STARLINK-36968
OBJECT_ID      = 2026-039K
CENTER_NAME    = EARTH
REF_FRAME      = TEME
TIME_SYSTEM    = UTC
MEAN_ELEMENT_THEORY = SGP/SGP4

EPOCH          = 2026-03-15T06:00:00.999648
MEAN_MOTION    = 15.65450705
ECCENTRICITY   = .0001482
INCLINATION    = 42.9997
RA_OF_ASC_NODE = 21.0486
ARG_OF_PERICENTER = 268.4709
MEAN_ANOMALY   = 87.7352

EPHEMERIS_TYPE = 0
CLASSIFICATION_TYPE = U
NORAD_CAT_ID   = 67995
ELEMENT_SET_NO = 999
REV_AT_EPOCH   = 377
BSTAR          = -.20803258E-1
MEAN_MOTION_DOT = -.1896083E-1
MEAN_MOTION_DDOT = 0

CCSDS_OMM_VERS = 2.0
CREATION_DATE  = 
ORIGINATOR     = 

OBJECT_NAME    = STARLINK-36979
OBJECT_ID      = 2026-039L
CENTER_NAME    = EARTH
REF_FRAME      = TEME
TIME_SYSTEM    = UTC
MEAN_ELEMENT_THEORY = SGP/SGP4

EPOCH          = 2026-03-14T23:28:37.616160
MEAN_MOTION    = 15.82043667
ECCENTRICITY   = .00021657
INCLINATION    = 42.9991
RA_OF_ASC_NODE = 22.4301
ARG_OF_PERICENTER = 291.0763
MEAN_ANOMALY   = 68.9877

EPHEMERIS_TYPE = 0
CLASSIFICATION_TYPE = U
NORAD_CAT_ID   = 67996
ELEMENT_SET_NO = 999
REV_AT_EPOCH   = 247
BSTAR          = .94174817E-3
MEAN_MOTION_DOT = .202745E-2
MEAN_MOTION_DDOT = 0

CCSDS_OMM_VERS = 2.0
CREATION_DATE  = 
ORIGINATOR     = 

OBJECT_NAME    = STARLINK-36994
OBJECT_ID      = 2026-039M
CENTER_NAME    = EARTH
REF_FRAME      = TEME
TIME_SYSTEM    = UTC
MEAN_ELEMENT_THEORY = SGP/SGP4

EPOCH          = 2026-03-15T06:00:00.999648
MEAN_MOTION    = 15.75029971
ECCENTRICITY   = .00012575
INCLINATION    = 42.9997
RA_OF_ASC_NODE = 20.7850
ARG_OF_PERICENTER = 272.2816
MEAN_ANOMALY   = 189.4560

EPHEMERIS_TYPE = 0
CLASSIFICATION_TYPE = U
NORAD_CAT_ID   = 67997
ELEMENT_SET_NO = 999
REV_AT_EPOCH   = 377
BSTAR          = -.14043095E-1
MEAN_MOTION_DOT = -.187842E-1
MEAN_MOTION_DDOT = 0

CCSDS_OMM_VERS = 2.0
CREATION_DATE  = 
ORIGINATOR     = 

OBJECT_NAME    = STARLINK-36988
OBJECT_ID      = 2026-039N
CENTER_NAME    = EARTH
REF_FRAME      = TEME
TIME_SYSTEM    = UTC
MEAN_ELEMENT_THEORY = SGP/SGP4

EPOCH          = 2026-03-15T06:00:00.999648
MEAN_MOTION    = 15.76062285
ECCENTRICITY   = .00014876
INCLINATION    = 42.9998
RA_OF_ASC_NODE = 20.7815
ARG_OF_PERICENTER = 278.7442
MEAN_ANOMALY   = 184.4807

EPHEMERIS_TYPE = 0
CLASSIFICATION_TYPE = U
NORAD_CAT_ID   = 67998
ELEMENT_SET_NO = 999
REV_AT_EPOCH   = 377
BSTAR          = -.1339684E-1
MEAN_MOTION_DOT = -.1876635E-1
MEAN_MOTION_DDOT = 0

CCSDS_OMM_VERS = 2.0
CREATION_DATE  = 
ORIGINATOR     = 

OBJECT_NAME    = STARLINK-36926
OBJECT_ID      = 2026-039P
CENTER_NAME    = EARTH
REF_FRAME      = TEME
TIME_SYSTEM    = UTC
MEAN_ELEMENT_THEORY = SGP/SGP4

EPOCH          = 2026-03-15T06:00:00.999648
MEAN_MOTION    = 15.75219117
ECCENTRICITY   = .0001453
INCLINATION    = 42.9998
RA_OF_ASC_NODE = 20.7715
ARG_OF_PERICENTER = 280.1867
MEAN_ANOMALY   = 186.9296

EPHEMERIS_TYPE = 0
CLASSIFICATION_TYPE = U
NORAD_CAT_ID   = 67999
ELEMENT_SET_NO = 999
REV_AT_EPOCH   = 377
BSTAR          = -.13948933E-1
MEAN_MOTION_DOT = -.1881277E-1
MEAN_MOTION_DDOT = 0

